1 08820U 76039A   03088.72093715  .00000003  00000-0  10000-3 0  9139
2 08820 109.8177 154.4012 0044408 318.4405  41.2972  6.38664547371987
